STARLINK-30392          
1 57855U 23141R   26199.85134704 -.00000939  00000+0 -19571-4 0  9999
2 57855  53.1607  34.5921 0001353  93.4224 266.6932 15.30196744160410
STARLINK-30291          
1 57856U 23141S   26199.86106163  .00000508  00000+0  28139-4 0  9999
2 57856  53.1600  33.9440 0001357  89.7754 270.3402 15.31704774160427
STARLINK-30424          
1 57857U 23141T   26199.85431261 -.00000094  00000+0  87428-5 0  9997
2 57857  53.1613   8.6442 0001151  99.8374 260.2758 15.31701020160776
STARLINK-30290          
1 57858U 23141U   26199.86085034 -.00000091  00000+0  90472-5 0  9992
2 57858  53.1612  34.6511 0001269  82.7243 277.3902 15.30200954160418
STARLINK-30414          
1 57859U 23141V   26199.85768029 -.00000244  00000+0  38815-5 0  9997
2 57859  53.1618  34.6305 0001390  84.9453 275.1707 15.30190202160411
STARLINK-30272          
1 57860U 23141W   26199.86572519  .00009542  00000+0  31892-3 0  9992
2 57860  53.1611  33.9751 0001729  94.1183 266.0016 15.31694652160424
STARLINK-30432          
1 57864U 23144A   26199.88407519 -.00000030  00000+0  84384-5 0  9998
2 57864  42.9997 264.1451 0001217 275.4138  84.6575 15.27575877157660
STARLINK-30427          
1 57865U 23144B   26199.56099711 -.00000392  00000+0 -47276-5 0  9996
2 57865  43.0012 266.0145 0001261 276.4153  83.6555 15.27579555157618
STARLINK-30393          
1 57866U 23144C   26199.54943530 -.00000824  00000+0 -20437-4 0  9991
2 57866  43.0002 265.9271 0001381 273.0613  87.0080 15.27574676157613
STARLINK-30439          
1 57867U 23144D   26199.56485194  .00006923  00000+0  26082-3 0  9996
2 57867  43.0016 266.0457 0001429 271.3920  88.6768 15.27584344157660
STARLINK-30442          
1 57868U 23144E   26199.89563178  .00000804  00000+0  38754-4 0  9994
2 57868  43.0016 264.1840 0001162 278.9338  81.1382 15.27575607157668
STARLINK-30441          
1 57869U 23144F   26199.88021463 -.00000415  00000+0 -55600-5 0  9990
2 57869  43.0009 264.0697 0001156 275.8167  84.2552 15.27573465157662
STARLINK-30460          
1 57870U 23144G   26199.89820815  .00000113  00000+0  13623-4 0  9992
2 57870  43.0029 264.2461 0001339 273.7586  86.3113 15.27575502157718
STARLINK-30444          
1 57871U 23144H   26199.90591639  .00005415  00000+0  20612-3 0  9999
2 57871  43.0012 264.3059 0001905 276.9671  83.0964 15.27585099157422
STARLINK-30446          
1 57872U 23144J   26199.85777841  .00000239  00000+0  18234-4 0  9992
2 57872  43.0036 250.3113 0001569 265.5445  94.5228 15.27576171157593
STARLINK-30445          
1 57873U 23144K   26199.90206718  .00000117  00000+0  13788-4 0  9993
2 57873  43.0030 264.2812 0001550 276.1783  83.8892 15.27578754157666
STARLINK-30447          
1 57874U 23144L   26199.79363072 -.00000028  00000+0  85163-5 0  9997
2 57874  43.0004 239.0517 0001401 268.9522  91.1169 15.27573941157982
STARLINK-30434          
1 57875U 23144M   26199.58670080 -.00000098  00000+0  59746-5 0  9990
2 57875  43.0027 266.2088 0001666 267.0104  93.0557 15.27577400157663
STARLINK-30429          
1 57876U 23144N   26199.59057953 -.00001667  00000+0 -51093-4 0  9990
2 57876  43.0014 266.2374 0001264 262.8266  97.2442 15.27556996157659
STARLINK-30284          
1 57877U 23144P   26199.16806104 -.00000267  00000+0 -15938-6 0  9999
2 57877  43.0025 231.6902 0001611 271.7162  88.3505 15.27568769158018
STARLINK-30433          
1 57878U 23144Q   26199.86866868 -.00001035  00000+0 -28094-4 0  9999
2 57878  43.0014 264.0239 0001243 274.0877  85.9832 15.27567285157703
STARLINK-30358          
1 57879U 23144R   26199.54560059 -.00000870  00000+0 -22109-4 0  9995
2 57879  43.0006 265.9006 0000898 281.3530  78.7221 15.27564204157653
STARLINK-30436          
1 57880U 23144S   26199.87893444  .00000099  00000+0  13107-4 0  9999
2 57880  42.9998 264.0961 0001287 273.5746  86.4959 15.27578309157709
STARLINK-30339          
1 57882U 23144U   26199.59954882 -.00000218  00000+0  16033-5 0  9990
2 57882  43.0006 266.2956 0001240 248.6249 111.4470 15.27573704157656
STARLINK-30282          
1 57883U 23144V   26199.86609762  .00003098  00000+0  12210-3 0  9994
2 57883  43.0020 264.0071 0000791 252.0219 108.0547 15.27563149157708
STARLINK-30340          
1 57884U 23144W   26199.87379197  .00000115  00000+0  13709-4 0  9994
2 57884  43.0003 264.0508 0001407 268.2341  91.8350 15.27581148157705
STARLINK-30279          
1 57885U 23144X   26199.86994295 -.00000151  00000+0  40455-5 0  9996
2 57885  43.0013 264.0322 0001002 282.4349  77.6391 15.27571035157642
YAOGAN-39 02A           
1 57886U 23145A   26199.86087841  .00004753  00000+0  19800-3 0  9997
2 57886  35.0043   1.2705 0002997 250.9969 109.0421 15.23116768158004
YAOGAN-39 02B           
1 57889U 23145D   26199.86360799  .00002877  00000+0  14595-3 0  9997
2 57889  34.9920  26.6595 0008675  21.1489 338.9581 15.16489411157707
YAOGAN-39 02C           
1 57890U 23145E   26189.20238164  .00003765  00000+0  18230-3 0  9993
2 57890  34.9938  93.1935 0007040 250.0204 109.9751 15.18020738156055
