OBJECT_NAME,OBJECT_ID,EPOCH,MEAN_MOTION,ECCENTRICITY,INCLINATION,RA_OF_ASC_NODE,ARG_OF_PERICENTER,MEAN_ANOMALY,EPHEMERIS_TYPE,CLASSIFICATION_TYPE,NORAD_CAT_ID,ELEMENT_SET_NO,REV_AT_EPOCH,BSTAR,MEAN_MOTION_DOT,MEAN_MOTION_DDOT
STARLINK-30392,2023-141R,2026-07-18T20:25:56.384256,15.30196744,.00013537,53.1607,34.5921,93.4224,266.6932,0,U,57855,999,16041,-.19570984E-4,-.939E-5,0
STARLINK-30291,2023-141S,2026-07-18T20:39:55.724832,15.31704774,.00013571,53.1600,33.9440,89.7754,270.3402,0,U,57856,999,16042,.28139235E-4,.508E-5,0
STARLINK-30424,2023-141T,2026-07-18T20:30:12.609504,15.31701020,.00011518,53.1613,8.6442,99.8374,260.2758,0,U,57857,999,16077,.8742801E-5,-.94E-6,0
STARLINK-30290,2023-141U,2026-07-18T20:39:37.469376,15.30200954,.00012696,53.1612,34.6511,82.7243,277.3902,0,U,57858,999,16041,.9047176E-5,-.91E-6,0
STARLINK-30414,2023-141V,2026-07-18T20:35:03.577056,15.30190202,.00013902,53.1618,34.6305,84.9453,275.1707,0,U,57859,999,16041,.3881496E-5,-.244E-5,0
STARLINK-30272,2023-141W,2026-07-18T20:46:38.656416,15.31694652,.00017298,53.1611,33.9751,94.1183,266.0016,0,U,57860,999,16042,.31892052E-3,.9542E-4,0
STARLINK-30432,2023-144A,2026-07-18T21:13:04.096416,15.27575877,.00012179,42.9997,264.1451,275.4138,84.6575,0,U,57864,999,15766,.8438404E-5,-.3E-6,0
STARLINK-30427,2023-144B,2026-07-18T13:27:50.150304,15.27579555,.0001261,43.0012,266.0145,276.4153,83.6555,0,U,57865,999,15761,-.47276E-5,-.392E-5,0
STARLINK-30393,2023-144C,2026-07-18T13:11:11.209920,15.27574676,.0001381,43.0002,265.9271,273.0613,87.0080,0,U,57866,999,15761,-.20437E-4,-.824E-5,0
STARLINK-30439,2023-144D,2026-07-18T13:33:23.207616,15.27584344,.0001429,43.0016,266.0457,271.3920,88.6768,0,U,57867,999,15766,.26082E-3,.6923E-4,0
STARLINK-30442,2023-144E,2026-07-18T21:29:42.585792,15.27575607,.00011622,43.0016,264.1840,278.9338,81.1382,0,U,57868,999,15766,.38753943E-4,.804E-5,0
STARLINK-30441,2023-144F,2026-07-18T21:07:30.544032,15.27573465,.0001156,43.0009,264.0697,275.8167,84.2552,0,U,57869,999,15766,-.5560032E-5,-.415E-5,0
STARLINK-30460,2023-144G,2026-07-18T21:33:25.184160,15.27575502,.00013398,43.0029,264.2461,273.7586,86.3113,0,U,57870,999,15771,.1362251E-4,.113E-5,0
STARLINK-30444,2023-144H,2026-07-18T21:44:31.176096,15.27585099,.00019059,43.0012,264.3059,276.9671,83.0964,0,U,57871,999,15742,.20612003E-3,.5415E-4,0
STARLINK-30446,2023-144J,2026-07-18T20:35:12.054624,15.27576171,.0001569,43.0036,250.3113,265.5445,94.5228,0,U,57872,999,15759,.1823405E-4,.239E-5,0
STARLINK-30445,2023-144K,2026-07-18T21:38:58.604352,15.27578754,.000155,43.0030,264.2812,276.1783,83.8892,0,U,57873,999,15766,.13787851E-4,.117E-5,0
STARLINK-30447,2023-144L,2026-07-18T19:02:49.694208,15.27573941,.00014013,43.0004,239.0517,268.9522,91.1169,0,U,57874,999,15798,.8516349E-5,-.28E-6,0
STARLINK-30434,2023-144M,2026-07-18T14:04:50.949120,15.27577400,.0001666,43.0027,266.2088,267.0104,93.0557,0,U,57875,999,15766,.59746E-5,-.98E-6,0
STARLINK-30429,2023-144N,2026-07-18T14:10:26.071392,15.27556996,.0001264,43.0014,266.2374,262.8266,97.2442,0,U,57876,999,15765,-.51093E-4,-.1667E-4,0
STARLINK-30284,2023-144P,2026-07-18T04:02:00.473856,15.27568769,.0001611,43.0025,231.6902,271.7162,88.3505,0,U,57877,999,15801,-.159382E-6,-.267E-5,0
STARLINK-30433,2023-144Q,2026-07-18T20:50:52.973952,15.27567285,.00012437,43.0014,264.0239,274.0877,85.9832,0,U,57878,999,15770,-.28093695E-4,-.1035E-4,0
STARLINK-30358,2023-144R,2026-07-18T13:05:39.890976,15.27564204,.0000898,43.0006,265.9006,281.3530,78.7221,0,U,57879,999,15765,-.22109E-4,-.87E-5,0
STARLINK-30436,2023-144S,2026-07-18T21:05:39.935616,15.27578309,.0001287,42.9998,264.0961,273.5746,86.4959,0,U,57880,999,15770,.13107264E-4,.99E-6,0
STARLINK-30339,2023-144U,2026-07-18T14:23:21.018048,15.27573704,.000124,43.0006,266.2956,248.6249,111.4470,0,U,57882,999,15765,.16033E-5,-.218E-5,0
STARLINK-30282,2023-144V,2026-07-18T20:47:10.834368,15.27563149,.00007916,43.0020,264.0071,252.0219,108.0547,0,U,57883,999,15770,.12210491E-3,.3098E-4,0
STARLINK-30340,2023-144W,2026-07-18T20:58:15.626208,15.27581148,.00014077,43.0003,264.0508,268.2341,91.8350,0,U,57884,999,15770,.13709247E-4,.115E-5,0
STARLINK-30279,2023-144X,2026-07-18T20:52:43.070880,15.27571035,.0001002,43.0013,264.0322,282.4349,77.6391,0,U,57885,999,15764,.4045478E-5,-.151E-5,0
YAOGAN-39 02A,2023-145A,2026-07-18T20:39:39.894624,15.23116768,.00029971,35.0043,1.2705,250.9969,109.0421,0,U,57886,999,15800,.19799923E-3,.4753E-4,0
YAOGAN-39 02B,2023-145D,2026-07-18T20:43:35.730336,15.16489411,.0008675,34.9920,26.6595,21.1489,338.9581,0,U,57889,999,15770,.14595107E-3,.2877E-4,0
YAOGAN-39 02C,2023-145E,2026-07-08T04:51:25.773696,15.18020738,.000704,34.9938,93.1935,250.0204,109.9751,0,U,57890,999,15605,.1823E-3,.3765E-4,0
